start=new Date('2023-03-09T00:00:00.000Z').valueOf();
sats=[{"PERIAPSIS":"538.804","BSTAR":"0.00159660000000","SEMIMAJOR_AXIS":"6917.837","APOAPSIS":"540.600","RA_OF_ASC_NODE":"347.3236","GP_ID":"227726276","CENTER_NAME":"EARTH","TLE_LINE2":"2 52990  53.2169 347.3236 0001298 104.4117 255.7019 15.08854299 37616","SITE":"AFETR","FILE":"3855080","LAUNCH_DATE":"2022-07-07","DECAY_DATE":null,"MEAN_MOTION_DDOT":"0.0000000000000","PERIOD":"95.437","CLASSIFICATION_TYPE":"U","REV_AT_EPOCH":"3761","TLE_LINE1":"1 52990U 22076E   23068.00680164  .00025223  00000-0  15966-2 0  9999","INCLINATION":"53.2169","ECCENTRICITY":"0.00012980","ARG_OF_PERICENTER":"104.4117","MEAN_ELEMENT_THEORY":"SGP4","NORAD_CAT_ID":"52990","OBJECT_TYPE":"PAYLOAD","EPOCH":"2023-03-09T00:09:47.661696","REF_FRAME":"TEME","EPHEMERIS_TYPE":"0","MEAN_MOTION":"15.08854299","OBJECT_ID":"2022-076E","COUNTRY_CODE":"US","RCS_SIZE":"LARGE","TIME_SYSTEM":"UTC","ELEMENT_SET_NO":"999","MEAN_ANOMALY":"255.7019","OBJECT_NAME":"STARLINK-4286","MEAN_MOTION_DOT":"0.00025223"},{"MEAN_ANOMALY":"228.4197","MEAN_MOTION_DOT":"0.00039415","OBJECT_NAME":"STARLINK-4285","RCS_SIZE":"LARGE","TIME_SYSTEM":"UTC","ELEMENT_SET_NO":"999","OBJECT_ID":"2022-076F","COUNTRY_CODE":"US","REF_FRAME":"TEME","EPHEMERIS_TYPE":"0","MEAN_MOTION":"15.08856177","EPOCH":"2023-03-09T00:04:29.725248","MEAN_ELEMENT_THEORY":"SGP4","NORAD_CAT_ID":"52991","OBJECT_TYPE":"PAYLOAD","ECCENTRICITY":"0.00005160","ARG_OF_PERICENTER":"131.6839","CLASSIFICATION_TYPE":"U","REV_AT_EPOCH":"3761","TLE_LINE1":"1 52991U 22076F   23068.00312182  .00039415  00000-0  24797-2 0  9992","INCLINATION":"53.2161","PERIOD":"95.437","MEAN_MOTION_DDOT":"0.0000000000000","FILE":"3855080","LAUNCH_DATE":"2022-07-07","DECAY_DATE":null,"SITE":"AFETR","TLE_LINE2":"2 52991  53.2161 347.3426 0000516 131.6839 228.4197 15.08856177 37616","CENTER_NAME":"EARTH","PERIAPSIS":"539.339","BSTAR":"0.00247970000000","SEMIMAJOR_AXIS":"6917.831","APOAPSIS":"540.053","GP_ID":"227726050","RA_OF_ASC_NODE":"347.3426"},{"SITE":"AFETR","PERIOD":"95.436","MEAN_MOTION_DDOT":"0.0000000000000","DECAY_DATE":null,"FILE":"3855077","LAUNCH_DATE":"2022-07-07","APOAPSIS":"540.558","RA_OF_ASC_NODE":"348.2531","GP_ID":"227722314","PERIAPSIS":"538.820","BSTAR":"0.00237100000000","SEMIMAJOR_AXIS":"6917.824","TLE_LINE2":"2 52992  53.2165 348.2531 0001256  70.1331 289.9797 15.08858451 37114","CENTER_NAME":"EARTH","COUNTRY_CODE":"US","OBJECT_ID":"2022-076G","MEAN_MOTION":"15.08858451","REF_FRAME":"TEME","EPHEMERIS_TYPE":"0","MEAN_MOTION_DOT":"0.00037667","OBJECT_NAME":"STARLINK-4269","MEAN_ANOMALY":"289.9797","ELEMENT_SET_NO":"999","RCS_SIZE":"LARGE","TIME_SYSTEM":"UTC","ARG_OF_PERICENTER":"70.1331","ECCENTRICITY":"0.00012560","TLE_LINE1":"1 52992U 22076G   23067.80168551  .00037667  00000-0  23710-2 0  9990","INCLINATION":"53.2165","REV_AT_EPOCH":"3711","CLASSIFICATION_TYPE":"U","EPOCH":"2023-03-08T19:14:25.628064","OBJECT_TYPE":"PAYLOAD","MEAN_ELEMENT_THEORY":"SGP4","NORAD_CAT_ID":"52992"},{"TLE_LINE2":"2 52993  53.2158 337.2078 0001484  72.8569 287.2586 15.08859120 37757","CENTER_NAME":"EARTH","PERIAPSIS":"538.660","BSTAR":"0.00145430000000","SEMIMAJOR_AXIS":"6917.822","APOAPSIS":"540.714","GP_ID":"227726042","RA_OF_ASC_NODE":"337.2078","PERIOD":"95.436","MEAN_MOTION_DDOT":"0.0000000000000","FILE":"3855080","LAUNCH_DATE":"2022-07-07","DECAY_DATE":null,"SITE":"AFETR","EPOCH":"2023-03-09T00:48:12.837888","MEAN_ELEMENT_THEORY":"SGP4","NORAD_CAT_ID":"52993","OBJECT_TYPE":"PAYLOAD","ECCENTRICITY":"0.00014840","ARG_OF_PERICENTER":"72.8569","REV_AT_EPOCH":"3775","CLASSIFICATION_TYPE":"U","TLE_LINE1":"1 52993U 22076H   23068.03348192  .00022945  00000-0  14543-2 0  9995","INCLINATION":"53.2158","MEAN_ANOMALY":"287.2586","MEAN_MOTION_DOT":"0.00022945","OBJECT_NAME":"STARLINK-4264","RCS_SIZE":"LARGE","TIME_SYSTEM":"UTC","ELEMENT_SET_NO":"999","OBJECT_ID":"2022-076H","COUNTRY_CODE":"US","REF_FRAME":"TEME","EPHEMERIS_TYPE":"0","MEAN_MOTION":"15.08859120"},{"CENTER_NAME":"EARTH","TLE_LINE2":"2 52994  53.2157 337.2243 0001924  83.1531 276.9680 15.08867924 37755","GP_ID":"227726048","RA_OF_ASC_NODE":"337.2243","APOAPSIS":"540.991","SEMIMAJOR_AXIS":"6917.795","PERIAPSIS":"538.329","BSTAR":"0.00283770000000","DECAY_DATE":null,"LAUNCH_DATE":"2022-07-07","FILE":"3855080","MEAN_MOTION_DDOT":"0.0000000000000","PERIOD":"95.436","SITE":"AFETR","OBJECT_TYPE":"PAYLOAD","NORAD_CAT_ID":"52994","MEAN_ELEMENT_THEORY":"SGP4","EPOCH":"2023-03-09T00:42:54.864288","INCLINATION":"53.2157","TLE_LINE1":"1 52994U 22076J   23068.02980167  .00045199  00000-0  28377-2 0  9995","CLASSIFICATION_TYPE":"U","REV_AT_EPOCH":"3775","ARG_OF_PERICENTER":"83.1531","ECCENTRICITY":"0.00019240","ELEMENT_SET_NO":"999","TIME_SYSTEM":"UTC","RCS_SIZE":"LARGE","OBJECT_NAME":"STARLINK-4256","MEAN_MOTION_DOT":"0.00045199","MEAN_ANOMALY":"276.9680","MEAN_MOTION":"15.08867924","EPHEMERIS_TYPE":"0","REF_FRAME":"TEME","COUNTRY_CODE":"US","OBJECT_ID":"2022-076J"},{"ARG_OF_PERICENTER":"62.8447","ECCENTRICITY":"0.00015710","INCLINATION":"53.2174","TLE_LINE1":"1 52995U 22076K   23067.75748254  .00039705  00000-0  24967-2 0  9991","CLASSIFICATION_TYPE":"U","REV_AT_EPOCH":"3724","EPOCH":"2023-03-08T18:10:46.491456","OBJECT_TYPE":"PAYLOAD","NORAD_CAT_ID":"52995","MEAN_ELEMENT_THEORY":"SGP4","COUNTRY_CODE":"US","OBJECT_ID":"2022-076K","MEAN_MOTION":"15.08870757","EPHEMERIS_TYPE":"0","REF_FRAME":"TEME","MEAN_MOTION_DOT":"0.00039705","OBJECT_NAME":"STARLINK-4296","MEAN_ANOMALY":"297.2706","ELEMENT_SET_NO":"999","TIME_SYSTEM":"UTC","RCS_SIZE":"LARGE","GP_ID":"227722065","RA_OF_ASC_NODE":"338.4423","APOAPSIS":"540.738","SEMIMAJOR_AXIS":"6917.786","PERIAPSIS":"538.565","BSTAR":"0.00249670000000","TLE_LINE2":"2 52995  53.2174 338.4423 0001571  62.8447 297.2706 15.08870757 37243","CENTER_NAME":"EARTH","SITE":"AFETR","PERIOD":"95.436","MEAN_MOTION_DDOT":"0.0000000000000","DECAY_DATE":null,"LAUNCH_DATE":"2022-07-07","FILE":"3855077"},{"TLE_LINE2":"2 52996  53.2159 338.4298 0001435  69.3211 290.7935 15.08838028 37244","CENTER_NAME":"EARTH","BSTAR":"0.00006864800000","PERIAPSIS":"538.759","SEMIMAJOR_AXIS":"6917.886","APOAPSIS":"540.744","GP_ID":"227722815","RA_OF_ASC_NODE":"338.4298","PERIOD":"95.438","MEAN_MOTION_DDOT":"0.0000000000000","FILE":"3855077","LAUNCH_DATE":"2022-07-07","DECAY_DATE":null,"SITE":"AFETR","EPOCH":"2023-03-08T18:16:04.580832","MEAN_ELEMENT_THEORY":"SGP4","NORAD_CAT_ID":"52996","OBJECT_TYPE":"PAYLOAD","ARG_OF_PERICENTER":"69.3211","ECCENTRICITY":"0.00014350","REV_AT_EPOCH":"3724","CLASSIFICATION_TYPE":"U","TLE_LINE1":"1 52996U 22076L   23067.76116413  .00000805  00000-0  68648-4 0  9994","INCLINATION":"53.2159","MEAN_ANOMALY":"290.7935","OBJECT_NAME":"STARLINK-4295","MEAN_MOTION_DOT":"0.00000805","RCS_SIZE":"LARGE","TIME_SYSTEM":"UTC","ELEMENT_SET_NO":"999","OBJECT_ID":"2022-076L","COUNTRY_CODE":"US","REF_FRAME":"TEME","EPHEMERIS_TYPE":"0","MEAN_MOTION":"15.08838028"},{"MEAN_MOTION":"15.14065747","EPHEMERIS_TYPE":"0","REF_FRAME":"TEME","COUNTRY_CODE":"US","OBJECT_ID":"2022-076M","ELEMENT_SET_NO":"999","TIME_SYSTEM":"UTC","RCS_SIZE":"LARGE","OBJECT_NAME":"STARLINK-4301","MEAN_MOTION_DOT":"0.00124654","MEAN_ANOMALY":"173.6990","INCLINATION":"53.2190","TLE_LINE1":"1 52997U 22076M   23068.03147493  .00124654  00000-0  66742-2 0  9998","REV_AT_EPOCH":"3777","CLASSIFICATION_TYPE":"U","ECCENTRICITY":"0.00019660","ARG_OF_PERICENTER":"186.3979","OBJECT_TYPE":"PAYLOAD","NORAD_CAT_ID":"52997","MEAN_ELEMENT_THEORY":"SGP4","EPOCH":"2023-03-09T00:45:19.433952","SITE":"AFETR","DECAY_DATE":null,"LAUNCH_DATE":"2022-07-07","FILE":"3855080","PERIOD":"95.108","MEAN_MOTION_DDOT":"0.0000000000000","RA_OF_ASC_NODE":"336.0240","GP_ID":"227726272","APOAPSIS":"525.175","SEMIMAJOR_AXIS":"6901.953","PERIAPSIS":"522.461","BSTAR":"0.00667420000000","CENTER_NAME":"EARTH","TLE_LINE2":"2 52997  53.2190 336.0240 0001966 186.3979 173.6990 15.14065747 37776"},{"RCS_SIZE":"LARGE","TIME_SYSTEM":"UTC","ELEMENT_SET_NO":"999","MEAN_ANOMALY":"303.5112","OBJECT_NAME":"STARLINK-4254","MEAN_MOTION_DOT":"0.00081184","REF_FRAME":"TEME","EPHEMERIS_TYPE":"0","MEAN_MOTION":"15.08847548","OBJECT_ID":"2022-076N","COUNTRY_CODE":"US","MEAN_ELEMENT_THEORY":"SGP4","NORAD_CAT_ID":"52998","OBJECT_TYPE":"PAYLOAD","EPOCH":"2023-03-09T00:16:24.580704","CLASSIFICATION_TYPE":"U","REV_AT_EPOCH":"3775","TLE_LINE1":"1 52998U 22076N   23068.01139561  .00081184  00000-0  50598-2 0  9996","INCLINATION":"53.2159","ARG_OF_PERICENTER":"56.6048","ECCENTRICITY":"0.00017640","FILE":"3855080","LAUNCH_DATE":"2022-07-07","DECAY_DATE":null,"PERIOD":"95.437","MEAN_MOTION_DDOT":"0.0000000000000","SITE":"AFETR","CENTER_NAME":"EARTH","TLE_LINE2":"2 52998  53.2159 337.2114 0001764  56.6048 303.5112 15.08847548 37755","BSTAR":"0.00505980000000","PERIAPSIS":"538.502","SEMIMAJOR_AXIS":"6917.857","APOAPSIS":"540.943","GP_ID":"227726274","RA_OF_ASC_NODE":"337.2114"},{"ECCENTRICITY":"0.00010360","ARG_OF_PERICENTER":"80.8181","TLE_LINE1":"1 52999U 22076P   23068.00404117  .00017231  00000-0  10977-2 0  9997","INCLINATION":"53.2136","REV_AT_EPOCH":"3775","CLASSIFICATION_TYPE":"U","EPOCH":"2023-03-09T00:05:49.157088","OBJECT_TYPE":"PAYLOAD","MEAN_ELEMENT_THEORY":"SGP4","NORAD_CAT_ID":"52999","COUNTRY_CODE":"US","OBJECT_ID":"2022-076P","MEAN_MOTION":"15.08852458","REF_FRAME":"TEME","EPHEMERIS_TYPE":"0","MEAN_MOTION_DOT":"0.00017231","OBJECT_NAME":"STARLINK-4217","MEAN_ANOMALY":"279.2929","ELEMENT_SET_NO":"999","RCS_SIZE":"LARGE","TIME_SYSTEM":"UTC","APOAPSIS":"540.424","GP_ID":"227726064","RA_OF_ASC_NODE":"337.3362","PERIAPSIS":"538.991","BSTAR":"0.00109770000000","SEMIMAJOR_AXIS":"6917.842","TLE_LINE2":"2 52999  53.2136 337.3362 0001036  80.8181 279.2929 15.08852458 37757","CENTER_NAME":"EARTH","SITE":"AFETR","MEAN_MOTION_DDOT":"0.0000000000000","PERIOD":"95.437","DECAY_DATE":null,"FILE":"3855084","LAUNCH_DATE":"2022-07-07"}];
